              M50 Cartesian                         M50 Keplerian  
    -----------------------------------       --------------------------------
     X    =        2039109.93                 A    =         6787257.56  meter
     Y    =        6226594.66  meter          E    =           .0015990
     Z    =        1739722.48                 I    =           51.97698
     XDOT =      -5121.780500                 Wp   =           59.67600
     YDOT =         72.524571  meter/sec      RA   =           59.88408  deg
     ZDOT =       5712.500064                 TA   =          319.33652
                                              MA   =          319.45581
                                              Ha   =            221.153  n.mi
                                              Hp   =            213.773
 
              M50 Cartesian                         J2K Cartesian  
    -----------------------------------       --------------------------------
     X    =        6689993.22                 X    =         1960880.20
     Y    =       20428460.19  feet           Y    =         6248960.18  meter
     Z    =        5707750.92                 Z    =         1749437.11
     XDOT =     -16803.741797                 XDOT =       -5149.959766
     YDOT =        237.941506  feet/sec       YDOT =          15.092648  meter/sec
     ZDOT =      18741.798109                 ZDOT =        5687.551221
 
              TDR Cartesian                         TDR Cartesian  
    -----------------------------------       --------------------------------
     X    =       11197212.37                 X    =         3412910.33
     Y    =       18336571.78  feet           Y    =         5588987.08  meter
     Z    =        5748824.75                 Z    =         1752241.78
     XDOT =     -15072.596719                 XDOT =       -4594.127480
     YDOT =       3330.428798  feet/sec       YDOT =        1015.114698  meter/sec
     ZDOT =      18633.338074                 ZDOT =        5679.441445
  
  
    The mean element set is posted at the UTC for which position is
    just north of the next ascending node relative to the above
    vector time
 
 
    TWO LINE MEAN ELEMENT SET
  
    ISS
    1 25544U 98067A   16096.56085880  .00016717  00000-0  10270-3 0  9010
    2 25544  51.6402  60.2713 0002435  29.4220 330.7069 15.54394933 33686
  
  
    Satellite: ISS
    Catalog Number: 25544
    Epoch time:      16096.56085880   =   yrday.fracday
    Element set:     901
    Inclination:       51.6402  deg
    RA of node:        60.2713  deg
    Eccentricity:     .0002435     
    Arg of perigee:    29.4220  deg
    Mean anomaly:     330.7069  deg
    Mean motion:   15.54394933  rev/day
    Decay rate:    1.67170E-04  rev/day^2
    Epoch rev:            3368
    Checksum:              300
 
 
    Coasting Arc #3 (Orbit 3382)
    ---------------------------------------
 
    Vector Time (GMT): 2016/097/12:00:00.000
    Vector Time (MET): N/A
    Weight (LBS)     : 922442.8
 
              M50 Cartesian                         M50 Keplerian  
    -----------------------------------       --------------------------------
     X    =        -911909.60                 A    =         6783855.17  meter
     Y    =       -5841145.64  meter          E    =           .0006448
     Z    =       -3334681.26                 I    =           51.94924
     XDOT =       5766.406256                 Wp   =           71.25304
     YDOT =       1789.044652  meter/sec      RA   =           54.92713  deg
     ZDOT =      -4716.076315                 TA   =          147.34802
                                              MA   =          147.30814
                                              Ha   =            221.252  n.mi
                                              Hp   =            213.718
 
              M50 Cartesian                         J2K Cartesian  
    -----------------------------------       --------------------------------
     X    =       -2991829.39                 X    =         -830326.11
     Y    =      -19163863.65  feet           Y    =        -5850887.53  meter
     Z    =      -10940555.33                 Z    =        -3338912.14
     XDOT =      18918.655697                 XDOT =        5768.880978
     YDOT =       5869.569068  feet/sec       YDOT =        1853.541611  meter/sec
     ZDOT =     -15472.691322                 ZDOT =       -4688.058602
 
              TDR Cartesian                         TDR Cartesian  
    -----------------------------------       --------------------------------
     X    =       -7582320.48                 X    =        -2311091.28
     Y    =      -17841925.80  feet           Y    =        -5438218.98  meter
     Z    =      -10957853.98                 Z    =        -3339953.89
     XDOT =      18577.863334                 XDOT =        5662.532744
     YDOT =       1522.176832  feet/sec       YDOT =         463.959498  meter/sec
     ZDOT =     -15351.245245                 ZDOT =       -4679.059551
  
  
    The mean element set is posted at the UTC for which position is
    just north of the next ascending node relative to the above
    vector time
 
 
    TWO LINE MEAN ELEMENT SET
  
    ISS
    1 25544U 98067A   16097.52523924  .00016717  00000-0  10270-3 0  9024
    2 25544  51.6408  55.4615 0002710  31.0118 329.1194 15.54385187 33839
  
  
    Satellite: ISS
    Catalog Number: 25544
    Epoch time:      16097.52523924   =   yrday.fracday
    Element set:     902
    Inclination:       51.6408  deg
    RA of node:        55.4615  deg
    Eccentricity:     .0002710     
    Arg of perigee:    31.0118  deg
    Mean anomaly:     329.1194  deg
    Mean motion:   15.54385187  rev/day
    Decay rate:    1.67170E-04  rev/day^2
    Epoch rev:            3383
    Checksum:              297
 
 
    Coasting Arc #4 (Orbit 3398)
    ---------------------------------------
 
    Vector Time (GMT): 2016/098/12:00:00.000
    Vector Time (MET): N/A
    Weight (LBS)     : 922442.8
 
              M50 Cartesian                         M50 Keplerian  
    -----------------------------------       --------------------------------
     X    =        -398932.07                 A    =         6779798.82  meter
     Y    =        5030778.33  meter          E    =           .0009644
     Z    =        4519887.37                 I    =           51.91715
     XDOT =      -6106.613485                 Wp   =           97.46037
     YDOT =      -3367.193000  meter/sec      RA   =           49.95956  deg
     ZDOT =       3201.762576                 TA   =          320.49174
                                              MA   =          320.56201
                                              Ha   =            221.195  n.mi
                                              Hp   =            213.668
 
              M50 Cartesian                         J2K Cartesian  
    -----------------------------------       --------------------------------
     X    =       -1308832.24                 X    =         -477113.76
     Y    =       16505178.26  feet           Y    =         5025880.67  meter
     Z    =       14829026.79                 Z    =         4517758.87
     XDOT =     -20034.821144                 XDOT =       -6084.059806
     YDOT =     -11047.221130  feet/sec       YDOT =       -3435.354684  meter/sec
     ZDOT =      10504.470393                 ZDOT =        3172.153057
 
              TDR Cartesian                         TDR Cartesian  
    -----------------------------------       --------------------------------
     X    =        3013318.06                 X    =          918459.34
     Y    =       16289759.87  feet           Y    =         4965118.81  meter
     Z    =       14818826.69                 Z    =         4516778.37
     XDOT =     -21120.402938                 XDOT =       -6437.498816
     YDOT =      -5553.601960  feet/sec       YDOT =       -1692.737877  meter/sec
     ZDOT =      10376.413450                 ZDOT =        3162.730819
  
  
    The mean element set is posted at the UTC for which position is
    just north of the next ascending node relative to the above
    vector time
 
 
    TWO LINE MEAN ELEMENT SET
  
    ISS
    1 25544U 98067A   16098.55390188  .00016717  00000-0  10270-3 0  9033
    2 25544  51.6410  50.3327 0002487  33.5902 326.5408 15.54424708 33994
  
  
    Satellite: ISS
    Catalog Number: 25544
    Epoch time:      16098.55390188   =   yrday.fracday
    Element set:     903
    Inclination:       51.6410  deg
    RA of node:        50.3327  deg
    Eccentricity:     .0002487     
    Arg of perigee:    33.5902  deg
    Mean anomaly:     326.5408  deg
    Mean motion:   15.54424708  rev/day
    Decay rate:    1.67170E-04  rev/day^2
    Epoch rev:            3399
    Checksum:              311
 
 
    Coasting Arc #5 (Orbit 3413)
    ---------------------------------------
 
    Vector Time (GMT): 2016/099/12:00:00.000
    Vector Time (MET): N/A
    Weight (LBS)     : 922442.8
 
              M50 Cartesian                         M50 Keplerian  
    -----------------------------------       --------------------------------
     X    =        1853061.69                 A    =         6777087.74  meter
     Y    =       -3930943.13  meter          E    =           .0016025
     Z    =       -5214377.83                 I    =           51.88738
     XDOT =       6010.198213                 Wp   =           73.57306
     YDOT =       4561.838543  meter/sec      RA   =           44.97891  deg
     ZDOT =      -1302.040141                 TA   =          183.93902
                                              MA   =          183.95165
                                              Ha   =            221.251  n.mi
                                              Hp   =            213.695
 
